NORAD_CAT_ID,OBJECT_NAME,OBJECT_TYPE,EPOCH,MEAN_MOTION,ECCENTRICITY,INCLINATION,RA_OF_ASC_NODE,ARG_OF_PERICENTER,MEAN_ANOMALY,BSTAR,MEAN_MOTION_DOT,MEAN_MOTION_DDOT,TLE_LINE0,TLE_LINE1,TLE_LINE2,SEMIMAJOR_AXIS,PERIOD,APOGEE,PERIGEE,DECAYED
56770.0,STARLINK-6342,PAYLOAD,2024-08-10 12:46:41,14.98332549,0.0003686,70.0005,17.177,286.987,73.0885,0.0001044,1.153e-05,0.0,0 STARLINK-6342,1 56770U 23078D   24223.53243022  .00001153  00000-0  10440-3 0  9991,2 56770  70.0005  17.1770 0003686 286.9870  73.0885 14.98332549 66141,6950.185,96.107,574.612,569.488,0.0
56770.0,STARLINK-6342,PAYLOAD,2024-08-10 14:22:49,14.98337527,0.0002885,70.0019,17.0098,284.7214,75.3625,0.00018323,2.094e-05,0.0,0 STARLINK-6342,1 56770U 23078D   24223.59918576  .00002094  00000-0  18323-3 0  9993,2 56770  70.0019  17.0098 0002885 284.7214  75.3625 14.98337527 65895,6950.17,96.107,574.04,570.029,0.0
56770.0,STARLINK-6342,PAYLOAD,2024-08-10 19:11:13,14.98343232,0.0002162,70.0032,16.5075,259.2198,100.8717,0.00027039,3.136e-05,0.0,0 STARLINK-6342,1 56770U 23078D   24223.79945984  .00003136  00000-0  27039-3 0  9990,2 56770  70.0032  16.5075 0002162 259.2198 100.8717 14.98343232 66184,6950.152,96.106,573.52,570.514,0.0
56770.0,STARLINK-6342,PAYLOAD,2024-08-10 20:47:20,14.98351782,0.0002916,70.0012,16.337,270.377,89.7055,0.0003303,3.852e-05,0.0,0 STARLINK-6342,1 56770U 23078D   24223.86621129  .00003852  00000-0  33030-3 0  9993,2 56770  70.0012  16.3370 0002916 270.3770  89.7055 14.98351782 65936,6950.126,96.106,574.017,569.964,0.0
56770.0,STARLINK-6342,PAYLOAD,2024-08-11 09:36:26,14.98333326,0.0002505,70.0016,14.9918,270.946,89.1412,0.0003737,4.369e-05,0.0,0 STARLINK-6342,1 56770U 23078D   24224.40030597  .00004369  00000-0  37370-3 0  9992,2 56770  70.0016  14.9918 0002505 270.9460  89.1412 14.98333326 66271,6950.183,96.107,573.789,570.307,0.0
56770.0,STARLINK-6342,PAYLOAD,2024-08-11 20:49:22,14.98338026,0.0002498,70.0018,13.8141,268.7033,91.384,0.0003809,4.456e-05,0.0,0 STARLINK-6342,1 56770U 23078D   24224.86762302  .00004456  00000-0  38090-3 0  9995,2 56770  70.0018  13.8141 0002498 268.7033  91.3840 14.98338026 66082,6950.168,96.106,573.769,570.297,0.0
56770.0,STARLINK-6342,PAYLOAD,2024-08-12 03:13:55,14.98333368,0.0002454,70.0016,13.1398,266.2782,93.8096,0.00025858,2.994e-05,0.0,0 STARLINK-6342,1 56770U 23078D   24225.13466527  .00002994  00000-0  25858-3 0  9999,2 56770  70.0016  13.1398 0002454 266.2782  93.8096 14.98333368 66122,6950.182,96.107,573.753,570.342,0.0
56770.0,STARLINK-6342,PAYLOAD,2024-08-12 19:15:13,14.98358374,0.0002773,70.0012,11.4567,267.0885,92.9957,2.7608e-05,2.37e-06,0.0,0 STARLINK-6342,1 56770U 23078D   24225.80224499  .00000237  00000-0  27608-4 0  9997,2 56770  70.0012  11.4567 0002773 267.0885  92.9957 14.98358374 66483,6950.105,96.105,573.897,570.043,0.0
56770.0,STARLINK-6342,PAYLOAD,2024-08-13 03:15:54,14.98337916,0.0002252,70.0069,10.612,282.9871,77.1036,-0.00019292,-2.394e-05,0.0,0 STARLINK-6342,1 56770U 23078D   24226.13605308 -.00002394  00000-0 -19292-3 0  9993,2 56770  70.0069  10.6120 0002252 282.9871  77.1036 14.98337916 66532,6950.168,96.106,573.599,570.468,0.0
56770.0,STARLINK-6342,PAYLOAD,2024-08-13 08:04:19,14.98333611,0.0001256,69.9964,10.1093,297.4588,62.6443,-0.00015154,-1.9e-05,0.0,0 STARLINK-6342,1 56770U 23078D   24226.33633911 -.00001900  00000-0 -15154-3 0  9991,2 56770  69.9964  10.1093 0001256 297.4588  62.6443 14.98333611 66300,6950.182,96.107,572.92,571.174,0.0
56770.0,STARLINK-6342,PAYLOAD,2024-08-13 16:05:01,14.98294295,0.0002409,69.9986,9.2661,270.218,89.8703,-0.00075658,-9.1e-05,0.0,0 STARLINK-6342,1 56770U 23078D   24226.67016094 -.00009100  00000-0 -75658-3 0  9990,2 56770  69.9986   9.2661 0002409 270.2180  89.8703 14.98294295 66610,6950.303,96.109,573.843,570.494,0.0
56770.0,STARLINK-6342,PAYLOAD,2024-08-14 03:17:58,14.98297549,0.0002185,70.0071,8.0871,268.7745,91.3164,-0.00050065,-6.056e-05,0.0,0 STARLINK-6342,1 56770U 23078D   24227.13748697 -.00006056  00000-0 -50065-3 0  9995,2 56770  70.0071   8.0871 0002185 268.7745  91.3164 14.98297549 66689,6950.293,96.109,573.677,570.64,0.0
56770.0,STARLINK-6342,PAYLOAD,2024-08-14 12:54:46,14.98330448,0.000281,70.0035,7.0811,280.483,79.6013,0.00015135,1.713e-05,0.0,0 STARLINK-6342,1 56770U 23078D   24227.53803335  .00001713  00000-0  15135-3 0  9992,2 56770  70.0035   7.0811 0002810 280.4830  79.6013 14.98330448 66748,6950.192,96.107,574.01,570.104,0.0
56770.0,STARLINK-6342,PAYLOAD,2024-08-14 19:19:17,14.9833409,0.0002534,70.0015,6.4066,279.1266,80.9606,0.00027031,3.134e-05,0.0,0 STARLINK-6342,1 56770U 23078D   24227.80506443  .00003134  00000-0  27031-3 0  9999,2 56770  70.0015   6.4066 0002534 279.1266  80.9606 14.98334090 66786,6950.18,96.107,573.806,570.284,0.0
56770.0,STARLINK-6342,PAYLOAD,2024-08-15 09:44:30,14.9832099,0.0002785,70.0015,4.8918,279.5648,80.5196,0.00064456,7.604e-05,0.0,0 STARLINK-6342,1 56770U 23078D   24228.40590507  .00007604  00000-0  64456-3 0  9998,2 56770  70.0015   4.8918 0002785 279.5648  80.5196 14.98320990 66616,6950.221,96.108,574.021,570.15,0.0
56770.0,STARLINK-6342,PAYLOAD,2024-08-15 16:09:02,14.98329249,0.0003139,70.0017,4.2186,279.2309,80.8494,0.00066188,7.813e-05,0.0,0 STARLINK-6342,1 56770U 23078D   24228.67294091  .00007813  00000-0  66188-3 0  9992,2 56770  70.0017   4.2186 0003139 279.2309  80.8494 14.98329249 66658,6950.195,96.107,574.242,569.879,0.0
56770.0,STARLINK-6342,PAYLOAD,2024-08-16 01:45:52,14.98275605,0.0002899,70.0017,3.2088,285.6712,74.4127,0.0016492,0.00019612,0.0,0 STARLINK-6342,1 56770U 23078D   24229.07352395  .00019612  00000-0  16492-2 0  9991,2 56770  70.0017   3.2088 0002899 285.6712  74.4127 14.98275605 66972,6950.361,96.11,574.241,570.211,0.0
56770.0,STARLINK-6342,PAYLOAD,2024-08-16 09:46:31,14.98341521,0.0002722,70.0022,2.3672,282.7755,77.31,-5.0266e-07,-9.9e-07,0.0,0 STARLINK-6342,1 56770U 23078D   24229.40730561 -.00000099  00000-0 -50266-6 0  9995,2 56770  70.0022   2.3672 0002722 282.7755  77.3100 14.98341521 67028,6950.157,96.106,573.914,570.13,0.0
56770.0,STARLINK-6342,PAYLOAD,2024-08-16 19:23:19,14.98344028,0.0002581,70.0026,1.3589,279.0473,81.0394,5.0942e-05,5.15e-06,0.0,0 STARLINK-6342,1 56770U 23078D   24229.80785952  .00000515  00000-0  50942-4 0  9993,2 56770  70.0026   1.3589 0002581 279.0473  81.0394 14.98344028 66826,6950.15,96.106,573.808,570.221,0.0
56770.0,STARLINK-6342,PAYLOAD,2024-08-17 08:12:23,14.98355455,0.000235,70.0005,0.0117,275.4464,84.6427,-0.00035554,-4.335e-05,0.0,0 STARLINK-6342,1 56770U 23078D   24230.34193831 -.00004335  00000-0 -35554-3 0  9990,2 56770  70.0005   0.0117 0002350 275.4464  84.6427 14.98355455 66901,6950.114,96.105,573.612,570.346,0.0
56770.0,STARLINK-6342,PAYLOAD,2024-08-18 13:02:48,14.98327374,0.0002555,70.0025,356.9809,263.1175,96.9694,0.0001566,1.776e-05,0.0,0 STARLINK-6342,1 56770U 23078D   24231.54361631  .00001776  00000-0  15660-3 0  9998,2 56770  70.0025 356.9809 0002555 263.1175  96.9694 14.98327374 67344,6950.201,96.107,573.842,570.29,0.0
56770.0,STARLINK-6342,PAYLOAD,2024-08-18 17:51:11,14.98350485,0.0002676,70.0023,356.4758,260.9719,99.1138,-0.00014132,-1.78e-05,0.0,0 STARLINK-6342,1 56770U 23078D   24231.74388553 -.00001780  00000-0 -14132-3 0  9992,2 56770  70.0023 356.4758 0002676 260.9719  99.1138 14.98350485 67373,6950.13,96.106,573.854,570.135,0.0
56770.0,STARLINK-6342,PAYLOAD,2024-08-19 09:52:33,14.98324719,0.0002782,70.0032,354.7933,263.4845,96.5998,9.3766e-06,1.9e-07,0.0,0 STARLINK-6342,1 56770U 23078D   24232.41149962  .00000019  00000-0  93766-5 0  9990,2 56770  70.0032 354.7933 0002782 263.4845  96.5998 14.98324719 67472,6950.209,96.107,574.008,570.141,0.0
56770.0,STARLINK-6342,PAYLOAD,2024-08-20 13:06:50,14.98333994,0.0002991,70.0021,351.9321,268.7266,91.355,5.0092e-05,5.05e-06,0.0,0 STARLINK-6342,1 56770U 23078D   24233.54641382  .00000505  00000-0  50092-4 0  9992,2 56770  70.0021 351.9321 0002991 268.7266  91.3550 14.98333994 67648,6950.181,96.107,574.124,569.967,0.0
56770.0,STARLINK-6342,PAYLOAD,2024-08-20 14:42:58,14.98336603,0.0002923,70.002,351.7633,267.305,92.7774,6.6828e-05,7.05e-06,0.0,0 STARLINK-6342,1 56770U 23078D   24233.61317155  .00000705  00000-0  66828-4 0  9994,2 56770  70.0020 351.7633 0002923 267.3050  92.7774 14.98336603 67397,6950.172,96.107,574.069,570.006,0.0
56770.0,STARLINK-6342,PAYLOAD,2024-08-20 17:55:13,14.98342052,0.0002974,70.0017,351.4268,267.7939,92.288,9.5946e-05,1.052e-05,0.0,0 STARLINK-6342,1 56770U 23078D   24233.74668687  .00001052  00000-0  95946-4 0  9996,2 56770  70.0017 351.4268 0002974 267.7939  92.2880 14.98342052 67679,6950.156,96.106,574.088,569.954,0.0
56770.0,STARLINK-6342,PAYLOAD,2024-08-21 13:08:51,14.98327295,0.0002951,70.0025,349.4072,269.1304,90.9516,5.2748e-05,5.36e-06,0.0,0 STARLINK-6342,1 56770U 23078D   24234.54781766  .00000536  00000-0  52748-4 0  9998,2 56770  70.0025 349.4072 0002951 269.1304  90.9516 14.98327295 67791,6950.201,96.107,574.117,570.015,0.0
56770.0,STARLINK-6342,PAYLOAD,2024-08-21 14:44:59,14.98325674,0.0002673,70.0024,349.2389,261.59,98.4956,7.4044e-05,7.91e-06,0.0,0 STARLINK-6342,1 56770U 23078D   24234.61457823  .00000791  00000-0  74044-4 0  9996,2 56770  70.0024 349.2389 0002673 261.5900  98.4956 14.98325674 67541,6950.206,96.107,573.929,570.213,0.0
56770.0,STARLINK-6342,PAYLOAD,2024-08-21 17:57:15,14.98328845,0.0002744,70.0027,348.9028,261.7251,98.3597,5.9568e-05,6.18e-06,0.0,0 STARLINK-6342,1 56770U 23078D   24234.74809623  .00000618  00000-0  59568-4 0  9991,2 56770  70.0027 348.9028 0002744 261.7251  98.3597 14.98328845 67565,6950.196,96.107,573.969,570.154,0.0
